P/2017 S9 (PANSTARRS),e,14.1437,146.2200,237.7230,3.154028,0.1759567,0.30496297,188.9400,07/01.0/2020,2000,g 17.0,4.0
# From MPC114600
C/2017 T1 (Heinze),h,02/21.3989/2018,96.8361,102.3153,96.9140,1.000001,0.581646,2000,14.5,4.0
# From MPC119996
C/2017 T2 (PANSTARRS),e,57.2307,64.3776,92.9960,3680,0.0000044,0.99956112,0.0000,05/04.9537/2020,2000,g  5.0,4.0
# From MPC114600
C/2017 T3 (ATLAS),e,88.0381,230.0716,246.8332,1335,0.0000202,0.99938212,0.0000,07/19.0053/2018,2000,g 10.0,4.0
# From MPC115882
P/2017 TW13 (Lemmon),e,44.8483,322.2900,120.0389,7.148131,0.0515722,0.70937092,38.2236,07/01.0/2020,2000,g 15.0,2.0
# From MPC114600
C/2017 U2 (Fuls),e,95.3920,149.7109,147.7714,4224,0.0000036,0.99841313,0.0000,08/28.2759/2017,2000,g  9.0,4.0
# From MPC114600
P/2017 U3 (PANSTARRS),e,15.9135,165.1085,297.0894,4.931604,0.0899957,0.09891566,39.5689,07/01.0/2020,2000,g 11.0,4.0
# From MPC114600
C/2017 U4 (PANSTARRS),h,09/24.0657/2018,158.2212,245.9491,159.0716,1.003271,7.722355,2000,7.0,4.0
# From MPC114600
C/2017 U5 (PANSTARRS),e,18.9687,163.0861,262.0585,16.87529,0.0142176,0.74383268,13.1596,07/01.0/2020,2000,g 12.0,4.0
# From MPC118841
C/2017 U7,h,09/13.6377/2019,142.6116,276.2421,326.2414,1.002793,6.420355,2000,8.3,2.0
# From MPC114600
C/2017 W2 (Leonard),e,98.1990,312.8386,169.0942,13.68027,0.0194788,0.71091320,18.9418,07/01.0/2020,2000,g 11.0,4.0
# From MPC114601
P/2017 W3 (Gibbs),e,18.1795,210.3882,327.6182,7.843802,0.0448657,0.50841094,38.2469,07/01.0/2020,2000,g 10.5,4.0
# From MPC115883
C/2017 X1 (PANSTARRS),e,31.3035,251.1298,283.2830,31.44866,0.0055886,0.85156712,4.1717,07/01.0/2020,2000,g 10.0,4.0
# From MPC117069
C/2017 Y1 (PANSTARRS),e,55.2659,307.5294,134.3513,1932,0.0000116,0.99807753,0.0000,08/31.1379/2017,2000,g 11.5,4.0
# From MPC118841
C/2017 Y2 (PANSTARRS),h,11/04.5027/2020,128.4258,65.9807,147.8479,1.000853,4.632190,2000,15.0,4.0
# From MPC111770
P/2017 Y3 (Leonard),e,27.5668,153.8564,67.5827,9.851482,0.0318751,0.87031215,27.7637,07/01.0/2020,2000,g 16.5,4.0
# From MPC114601
C/2018 A1 (PANSTARRS),e,53.5965,336.6405,96.3070,25.11649,0.0078301,0.90377253,7.7103,07/01.0/2020,2000,g 12.5,4.0
# From MPC119996
C/2018 A3 (ATLAS),e,139.5511,194.2930,86.4080,492.3062,0.0000902,0.99334570,0.0000,01/12.7427/2019,2000,g  8.5,4.0
# From MPC114601
C/2018 A4 (PANSTARRS),e,3.1482,97.6347,356.0748,12.21694,0.0230813,0.80342881,17.8756,07/01.0/2020,2000,g 14.0,4.0
# From MPC109147
P/2018 A5 (PANSTARRS),e,23.5780,87.8303,359.6103,5.637892,0.0736256,0.52221882,74.4942,07/01.0/2020,2000,g 15.0,4.0
# From MPC119996
C/2018 A6 (Gibbs),e,76.9593,340.3827,264.5510,15.34607,0.0163949,0.80332210,5.7820,07/01.0/2020,2000,g  9.0,4.0
# From MPC118841
C/2018 B1 (Lemmon),h,03/29.7880/2018,162.4201,133.1906,68.3117,1.001589,5.115215,2000,9.0,4.0
# From MPC114601
P/2018 C1 (Lemmon-Read),e,5.1313,270.3933,235.5494,5.650737,0.0733747,0.53459785,62.7155,07/01.0/2020,2000,g 13.5,4.0
# From MPC114601
C/2018 C2 (Lemmon),h,06/01.9418/2018,34.4582,91.1386,134.1159,1.000971,1.957213,2000,13.0,4.0
# From MPEC 2020-AA5
C/2018 DO4 (Lemmon),e,160.4741,251.1316,175.9606,25.77161,0.0075334,0.90664519,2.3929,07/01.0/2020,2000,g 11.0,4.0
# From MPC114602
C/2018 E1 (ATLAS),e,72.5078,146.8555,299.4301,54.02425,0.0024821,0.94995036,1.9999,07/01.0/2020,2000,g 10.5,4.0
# From MPC114602
C/2018 E2 (Barros),e,97.7275,67.2000,277.4783,3774,0.0000043,0.99896106,0.0000,12/23.9562/2017,2000,g 10.5,4.0
# From MPC114602
C/2018 EN4 (NEOWISE),e,81.6033,136.1504,35.0111,18.28833,0.0126021,0.92075767,9.5095,07/01.0/2020,2000,g 15.0,4.0
# From MPC114602
C/2018 EF9 (Lemmon),e,84.6564,172.5728,72.6205,586.0087,0.0000695,0.99734281,0.0000,05/22.9999/2018,2000,g 18.0,2.0
# From MPC115883
C/2018 F1 (Grauer),e,46.0754,177.2763,71.6398,297.6361,0.0001919,0.98994170,0.0000,12/13.9769/2018,2000,g 11.5,4.0
# From MPC110084
C/2018 F3 (Johnson),p,08/15.2314/2017,105.5348,293.0113,2.483172,173.0311,2000,13.0,4.0
# From MPC119996
C/2018 F4 (PANSTARRS),h,12/04.1402/2019,78.0973,26.5098,263.2221,1.001504,3.439964,2000,11.9,2.0
# From MPC114602
P/2018 H2 (PANSTARRS),e,7.3880,68.4278,120.0193,4.395927,0.1069371,0.53986967,95.1894,07/01.0/2020,2000,g 16.6,2.0
# From MPC114602
C/2018 K1 (Weiland),e,164.1961,260.0197,325.0239,29.87853,0.0060348,0.93706042,4.9260,07/01.0/2020,2000,g 14.9,4.0
# From MPC118094
C/2018 KJ3 (Lemmon),e,136.7093,91.5946,217.6418,761.4633,0.0000469,0.99523423,0.0000,09/09.5803/2019,2000,g 12.2,2.0
# From MPC114602
P/2018 L1 (PANSTARRS),e,10.5944,268.6276,17.9517,3.649677,0.1413586,0.48302493,84.3027,07/01.0/2020,2000,g 15.0,4.0
# From MPC118841
C/2018 L2 (ATLAS),e,67.4095,243.0228,56.2595,255.5632,0.0002412,0.99329998,0.0000,12/02.6575/2018,2000,g 10.0,4.0
# From MPC114603
P/2018 L4 (PANSTARRS),e,26.6237,145.1654,140.5220,4.938720,0.0898013,0.66030709,62.8682,07/01.0/2020,2000,g 17.5,4.0
# From MPC119996
P/2018 L5 (Leonard),e,2.2085,219.1455,93.7481,3.627154,0.1426774,0.36481242,112.4418,07/01.0/2020,2000,g 14.5,4.0
# From MPC117070
C/2018 M1 (Catalina),e,37.2792,339.4274,14.1481,21.31581,0.0100150,0.93889034,7.2293,07/01.0/2020,2000,g 15.5,4.0
# From MPC112393
C/2018 N1 (NEOWISE),e,159.4457,292.4405,354.5906,337.6143,0.0001589,0.99612342,0.0000,08/01.9042/2018,2000,g 15.5,4.0
# From MPC119996
C/2018 N2 (ASASSN),h,11/10.9589/2019,77.5285,25.2543,24.3971,1.000098,3.124639,2000,6.0,4.0
# From MPC114603
C/2018 O1 (ATLAS),e,154.0422,87.6278,162.5397,27.82531,0.0067150,0.94395306,4.4955,07/01.0/2020,2000,g 17.0,4.0
# From MPC114603
P/2018 P3 (PANSTARRS),e,8.9084,59.1974,305.8634,3.006654,0.1890510,0.41623895,119.1845,07/01.0/2020,2000,g 14.5,4.0
# From MPC114603
P/2018 P4 (PANSTARRS),e,23.1065,353.0871,8.1687,6.667834,0.0572436,0.45016479,34.4242,07/01.0/2020,2000,g 12.0,4.0
# From MPC118094
C/2018 P5 (PANSTARRS),e,7.2547,216.2453,131.6803,12.78088,0.0215706,0.64193130,10.5766,07/01.0/2020,2000,g 11.0,4.0
# From MPC118841
C/2018 R3 (Lemmon),e,69.7238,324.6317,112.8592,1782,0.0000131,0.99927595,0.0000,06/07.1947/2019,2000,g  9.5,4.0
# From MPC112393
C/2018 R4 (Fuls),e,11.6839,298.4335,345.2432,322.5830,0.0001701,0.99469345,0.0000,03/03.6982/2018,2000,g 14.0,4.0
# From MPC114603
C/2018 R5 (Lemmon),e,103.7490,171.1361,178.0316,22.79285,0.0090575,0.84109099,4.8729,07/01.0/2020,2000,g 11.5,4.0
# From MPC119996
C/2018 U1 (Lemmon),h,11/02.7848/2021,108.3014,75.4771,180.4162,1.000655,4.994040,2000,5.0,4.0
# From MPC114604
C/2018 V1 (Machholz-Fujikawa-Iwamoto),h,12/03.4539/2018,144.0533,128.8775,88.8319,1.000399,0.385723,2000,12.0,4.0
# From MPC115884
C/2018 V2 (ATLAS),e,159.1425,356.9265,318.8724,25.45167,0.0076759,0.90261876,4.4679,07/01.0/2020,2000,g 15.0,4.0
# From MPC114604
P/2018 VN2 (Leonard),e,18.2471,226.5335,138.7239,4.064897,0.1202624,0.47825039,90.9866,07/01.0/2020,2000,g 15.0,4.0
# From MPC117070
A/2018 V3,e,164.9779,308.6574,3.4969,120.5725,0.0007444,0.98888993,0.0000,09/08.6778/2019,2000,g 15.7,2.0
# From MPC114604
C/2018 V4 (Africano),e,69.0036,78.3773,359.9640,208.9964,0.0003262,0.98469736,0.0000,03/01.5038/2019,2000,g 12.5,4.0
# From MPC114604
P/2018 V5 (Trujillo-Sheppard),e,10.5830,171.2957,260.7272,8.954504,0.0367825,0.47446889,23.4311,07/01.0/2020,2000,g 12.5,4.0
# From MPC115884
C/2018 W1 (Catalina),e,83.2574,233.5911,251.2567,21.76699,0.0097052,0.93749522,4.0392,07/01.0/2020,2000,g 15.7,2.0
# From MPC119996
C/2018 W2 (Africano),h,09/05.7125/2019,116.6169,181.8538,157.9752,1.000591,1.454733,2000,9.5,4.0
# From MPC119996
C/2018 X2 (Fitzsimmons),e,23.0695,340.8288,162.0597,150.4995,0.0005338,0.98587198,0.0000,07/08.5209/2019,2000,g 12.0,4.0
# From MPC114604
C/2018 X3 (PANSTARRS),e,43.3690,78.9196,359.7811,12.38832,0.0226040,0.78223669,12.3957,07/01.0/2020,2000,g 14.5,4.0
# From MPC118842
C/2018 Y1 (Iwamoto),e,160.4015,147.5043,358.0460,143.5668,0.0005730,0.99104200,0.0000,02/07.0425/2019,2000,g 11.5,4.0
# From MPC114605
P/2018 Y2 (Africano),e,11.6829,297.2680,162.4113,7.466424,0.0483098,0.47871766,26.3753,07/01.0/2020,2000,g 11.5,4.0
# From MPC114605
P/2019 A1 (PANSTARRS),e,13.7442,312.3032,150.8202,5.125254,0.0849437,0.56843745,53.4423,07/01.0/2020,2000,g 16.0,4.0
# From MPC114605
P/2019 A2 (ATLAS),e,14.8601,139.4657,324.1346,5.725872,0.0719352,0.38141833,42.3052,07/01.0/2020,2000,g 10.5,4.0
# From MPC114605
P/2019 A3 (PANSTARRS),e,15.3651,31.3137,325.4742,3.147246,0.1765257,0.26533271,123.3983,07/01.0/2020,2000,g 16.0,4.0
# From MPC114605
P/2019 A4 (PANSTARRS),e,13.3207,119.3003,341.6581,2.613116,0.2333276,0.08917562,134.0657,07/01.0/2020,2000,g 15.0,4.0
# From MPC118842
C/2019 A5 (PANSTARRS),e,67.5531,146.6230,356.0107,21.61427,0.0098083,0.70742600,3.8048,07/01.0/2020,2000,g  9.5,4.0
# From MPC114605
P/2019 A6 (Lemmon-PANSTARRS),e,33.2291,280.2748,156.2419,5.365400,0.0793051,0.63890527,53.2808,07/01.0/2020,2000,g 16.0,4.0
# From MPC114605
P/2019 A7 (PANSTARRS),e,17.7743,280.5252,119.3075,3.186138,0.1733035,0.16096439,156.9690,07/01.0/2020,2000,g 13.5,4.0
# From MPC115884
P/2019 A8 (PANSTARRS),e,2.9979,127.6716,22.0149,3.365799,0.1596143,0.44342211,106.0243,07/01.0/2020,2000,g 16.0,4.0
# From MPC118842
C/2019 A9 (PANSTARRS),e,84.3170,278.3748,237.9012,39.71628,0.0039378,0.96403503,1.3402,07/01.0/2020,2000,g 15.0,4.0
# From MPC114606
C/2019 B1 (Africano),e,123.3629,290.4374,174.8611,149.4068,0.0005397,0.98931254,0.0000,03/19.8707/2019,2000,g 16.0,4.0
# From MPC115885
P/2019 B2 (Groeller),e,16.8261,176.4211,358.8863,3.856815,0.1301250,0.37312384,50.5561,07/01.0/2020,2000,g 14.5,4.0
# From MPC115885
C/2019 B3 (PANSTARRS),h,01/19.7417/2021,66.5369,358.4226,263.8882,1.002859,6.823773,2000,5.5,4.0
# From MPEC 2020-AA5
C/2019 C1,e,36.0185,212.3944,319.1949,805.3043,0.0000431,0.99182768,0.0000,05/05.7546/2020,2000,g 10.0,4.0
# From MPC118842
C/2019 D1 (Flewelling),e,34.0923,231.7197,70.4983,140.0103,0.0005949,0.98872922,0.0000,05/11.8726/2019,2000,g 13.0,4.0
# From MPC119997
C/2019 E3 (ATLAS),h,11/11.9271/2023,84.2848,347.2303,280.5938,1.004691,10.315666,2000,2.5,4.0
# From MPC119997
